OBJECT B                
1 51825U 22019B   25079.90443801  .00036660  00000+0  10431-2 0  9998
2 51825  97.3917 155.9389 0010078 343.1231  16.9676 15.35991359169496
